COSMOS 2251 DEB         
1 35890U 93036AUD 25330.56579180  .00011157  00000+0  24342-2 0  9991
2 35890  73.9365 273.6166 0053063  40.9206 319.5921 14.57052696649159
COSMOS 2251 DEB         
1 35891U 93036AUE 25332.68299405  .00042078  00000+0  13261-2 0  9990
2 35891  73.9883 123.9917 0046971 255.1212 104.4787 15.31601125670057
COSMOS 2251 DEB         
1 35895U 93036AUJ 25332.45026319  .00002352  00000+0  13219-2 0  9995
2 35895  74.0486  12.4453 0199638 114.4344 247.7763 14.01419981588125
COSMOS 2251 DEB         
1 35898U 93036AUM 25330.44665313  .00007918  00000+0  69429-3 0  9996
2 35898  73.9920 330.3810 0079366 118.4454  31.5293 14.94349482665661
COSMOS 2251 DEB         
1 35901U 93036AUQ 25325.97625089  .00052914  00000+0  37593-2 0  9991
2 35901  74.0124  65.5008 0003779  42.8917  78.8485 15.04424666858143
COSMOS 2251 DEB         
1 35902U 93036AUR 25332.18294277  .00003825  00000+0  15047-2 0  9991
2 35902  73.9835 260.9996 0101447  18.5802 341.9005 14.26769543609226
COSMOS 2251 DEB         
1 35905U 93036AUU 25332.42338370  .00009844  00000+0  75319-3 0  9990
2 35905  74.0320 239.8674 0091135 323.3096  36.1870 14.98696461883686
