{
  "type": "FeatureCollection",
  "features": [
    {
      "type": "Feature",
      "properties": {
        "norad_id": 35890,
        "name": "COSMOS 2251 DEB",
        "group": "cosmos-2251-debris",
        "lat": NaN,
        "lon": NaN,
        "alt_km": NaN,
        "timestamp": "2025-12-01T02:47:04.293318+00:00",
        "meta": {
          "OBJECT_NAME": "COSMOS 2251 DEB",
          "OBJECT_ID": "1993-036AUD",
          "EPOCH": "2025-11-26T13:34:44.411520",
          "MEAN_MOTION": 14.57052696,
          "ECCENTRICITY": 0.00530638,
          "INCLINATION": 73.9365,
          "RA_OF_ASC_NODE": 273.6166,
          "ARG_OF_PERICENTER": 40.9206,
          "MEAN_ANOMALY": 319.5921,
          "EPHEMERIS_TYPE": 0,
          "CLASSIFICATION_TYPE": "U",
          "NORAD_CAT_ID": 35890,
          "ELEMENT_SET_NO": 999,
          "REV_AT_EPOCH": 64915,
          "BSTAR": 0.0024341632,
          "MEAN_MOTION_DOT": 0.00011157,
          "MEAN_MOTION_DDOT": 0
        }
      },
      "geometry": {
        "type": "Point",
        "coordinates": [
          NaN,
          NaN
        ]
      }
    },
    {
      "type": "Feature",
      "properties": {
        "norad_id": 35891,
        "name": "COSMOS 2251 DEB",
        "group": "cosmos-2251-debris",
        "lat": NaN,
        "lon": NaN,
        "alt_km": NaN,
        "timestamp": "2025-12-01T02:47:04.293334+00:00",
        "meta": {
          "OBJECT_NAME": "COSMOS 2251 DEB",
          "OBJECT_ID": "1993-036AUE",
          "EPOCH": "2025-11-28T16:23:30.685920",
          "MEAN_MOTION": 15.31601125,
          "ECCENTRICITY": 0.00469718,
          "INCLINATION": 73.9883,
          "RA_OF_ASC_NODE": 123.9917,
          "ARG_OF_PERICENTER": 255.1212,
          "MEAN_ANOMALY": 104.4787,
          "EPHEMERIS_TYPE": 0,
          "CLASSIFICATION_TYPE": "U",
          "NORAD_CAT_ID": 35891,
          "ELEMENT_SET_NO": 999,
          "REV_AT_EPOCH": 67005,
          "BSTAR": 0.0013260761,
          "MEAN_MOTION_DOT": 0.00042078,
          "MEAN_MOTION_DDOT": 0
        }
      },
      "geometry": {
        "type": "Point",
        "coordinates": [
          NaN,
          NaN
        ]
      }
    },
    {
      "type": "Feature",
      "properties": {
        "norad_id": 35895,
        "name": "COSMOS 2251 DEB",
        "group": "cosmos-2251-debris",
        "lat": NaN,
        "lon": NaN,
        "alt_km": NaN,
        "timestamp": "2025-12-01T02:47:04.293351+00:00",
        "meta": {
          "OBJECT_NAME": "COSMOS 2251 DEB",
          "OBJECT_ID": "1993-036AUJ",
          "EPOCH": "2025-11-28T10:48:22.739616",
          "MEAN_MOTION": 14.01419981,
          "ECCENTRICITY": 0.01996382,
          "INCLINATION": 74.0486,
          "RA_OF_ASC_NODE": 12.4453,
          "ARG_OF_PERICENTER": 114.4344,
          "MEAN_ANOMALY": 247.7763,
          "EPHEMERIS_TYPE": 0,
          "CLASSIFICATION_TYPE": "U",
          "NORAD_CAT_ID": 35895,
          "ELEMENT_SET_NO": 999,
          "REV_AT_EPOCH": 58812,
          "BSTAR": 0.0013219318,
          "MEAN_MOTION_DOT": 2.352e-05,
          "MEAN_MOTION_DDOT": 0
        }
      },
      "geometry": {
        "type": "Point",
        "coordinates": [
          NaN,
          NaN
        ]
      }
    },
    {
      "type": "Feature",
      "properties": {
        "norad_id": 35898,
        "name": "COSMOS 2251 DEB",
        "group": "cosmos-2251-debris",
        "lat": NaN,
        "lon": NaN,
        "alt_km": NaN,
        "timestamp": "2025-12-01T02:47:04.293367+00:00",
        "meta": {
          "OBJECT_NAME": "COSMOS 2251 DEB",
          "OBJECT_ID": "1993-036AUM",
          "EPOCH": "2025-11-26T10:43:10.830432",
          "MEAN_MOTION": 14.94349482,
          "ECCENTRICITY": 0.00793661,
          "INCLINATION": 73.992,
          "RA_OF_ASC_NODE": 330.381,
          "ARG_OF_PERICENTER": 118.4454,
          "MEAN_ANOMALY": 31.5293,
          "EPHEMERIS_TYPE": 0,
          "CLASSIFICATION_TYPE": "U",
          "NORAD_CAT_ID": 35898,
          "ELEMENT_SET_NO": 999,
          "REV_AT_EPOCH": 66566,
          "BSTAR": 0.00069428885,
          "MEAN_MOTION_DOT": 7.918e-05,
          "MEAN_MOTION_DDOT": 0
        }
      },
      "geometry": {
        "type": "Point",
        "coordinates": [
          NaN,
          NaN
        ]
      }
    },
    {
      "type": "Feature",
      "properties": {
        "norad_id": 35901,
        "name": "COSMOS 2251 DEB",
        "group": "cosmos-2251-debris",
        "lat": NaN,
        "lon": NaN,
        "alt_km": NaN,
        "timestamp": "2025-12-01T02:47:04.293384+00:00",
        "meta": {
          "OBJECT_NAME": "COSMOS 2251 DEB",
          "OBJECT_ID": "1993-036AUQ",
          "EPOCH": "2025-11-21T23:25:48.076896",
          "MEAN_MOTION": 15.04424666,
          "ECCENTRICITY": 0.00037792,
          "INCLINATION": 74.0124,
          "RA_OF_ASC_NODE": 65.5008,
          "ARG_OF_PERICENTER": 42.8917,
          "MEAN_ANOMALY": 78.8485,
          "EPHEMERIS_TYPE": 0,
          "CLASSIFICATION_TYPE": "U",
          "NORAD_CAT_ID": 35901,
          "ELEMENT_SET_NO": 999,
          "REV_AT_EPOCH": 85814,
          "BSTAR": 0.0037592562,
          "MEAN_MOTION_DOT": 0.00052914,
          "MEAN_MOTION_DDOT": 0
        }
      },
      "geometry": {
        "type": "Point",
        "coordinates": [
          NaN,
          NaN
        ]
      }
    },
    {
      "type": "Feature",
      "properties": {
        "norad_id": 35902,
        "name": "COSMOS 2251 DEB",
        "group": "cosmos-2251-debris",
        "lat": NaN,
        "lon": NaN,
        "alt_km": NaN,
        "timestamp": "2025-12-01T02:47:04.293419+00:00",
        "meta": {
          "OBJECT_NAME": "COSMOS 2251 DEB",
          "OBJECT_ID": "1993-036AUR",
          "EPOCH": "2025-11-28T04:23:26.255328",
          "MEAN_MOTION": 14.26769543,
          "ECCENTRICITY": 0.01014475,
          "INCLINATION": 73.9835,
          "RA_OF_ASC_NODE": 260.9996,
          "ARG_OF_PERICENTER": 18.5802,
          "MEAN_ANOMALY": 341.9005,
          "EPHEMERIS_TYPE": 0,
          "CLASSIFICATION_TYPE": "U",
          "NORAD_CAT_ID": 35902,
          "ELEMENT_SET_NO": 999,
          "REV_AT_EPOCH": 60922,
          "BSTAR": 0.001504712,
          "MEAN_MOTION_DOT": 3.825e-05,
          "MEAN_MOTION_DDOT": 0
        }
      },
      "geometry": {
        "type": "Point",
        "coordinates": [
          NaN,
          NaN
        ]
      }
    },
    {
      "type": "Feature",
      "properties": {
        "norad_id": 35905,
        "name": "COSMOS 2251 DEB",
        "group": "cosmos-2251-debris",
        "lat": NaN,
        "lon": NaN,
        "alt_km": NaN,
        "timestamp": "2025-12-01T02:47:04.293438+00:00",
        "meta": {
          "OBJECT_NAME": "COSMOS 2251 DEB",
          "OBJECT_ID": "1993-036AUU",
          "EPOCH": "2025-11-28T10:09:40.351680",
          "MEAN_MOTION": 14.98696461,
          "ECCENTRICITY": 0.00911356,
          "INCLINATION": 74.032,
          "RA_OF_ASC_NODE": 239.8674,
          "ARG_OF_PERICENTER": 323.3096,
          "MEAN_ANOMALY": 36.187,
          "EPHEMERIS_TYPE": 0,
          "CLASSIFICATION_TYPE": "U",
          "NORAD_CAT_ID": 35905,
          "ELEMENT_SET_NO": 999,
          "REV_AT_EPOCH": 88368,
          "BSTAR": 0.00075319414,
          "MEAN_MOTION_DOT": 9.844e-05,
          "MEAN_MOTION_DDOT": 0
        }
      },
      "geometry": {
        "type": "Point",
        "coordinates": [
          NaN,
          NaN
        ]
      }
    }
  ]
}